[{"OBJECT_NAME":"STARLINK-33931","OBJECT_ID":"2025-101N","EPOCH":"2026-03-09T04:39:54.488160","MEAN_MOTION":15.27602185,"ECCENTRICITY":0.00012252,"INCLINATION":43.0027,"RA_OF_ASC_NODE":0.4019,"ARG_OF_PERICENTER":290.8123,"MEAN_ANOMALY":69.2597,"EPHEMERIS_TYPE":0,"CLASSIFICATION_TYPE":"U","NORAD_CAT_ID":64006,"ELEMENT_SET_NO":999,"REV_AT_EPOCH":4700,"BSTAR":0.00097277126,"MEAN_MOTION_DOT":0.00026621,"MEAN_MOTION_DDOT":0},{"OBJECT_NAME":"OBJECT N","OBJECT_ID":"2019-093N","EPOCH":"2026-03-09T21:41:56.087232","MEAN_MOTION":15.29897693,"ECCENTRICITY":0.0006278,"INCLINATION":98.0505,"RA_OF_ASC_NODE":226.9456,"ARG_OF_PERICENTER":33.3806,"MEAN_ANOMALY":326.7828,"EPHEMERIS_TYPE":0,"CLASSIFICATION_TYPE":"U","NORAD_CAT_ID":44891,"ELEMENT_SET_NO":999,"REV_AT_EPOCH":33957,"BSTAR":0.0010567776,"MEAN_MOTION_DOT":0.00030617,"MEAN_MOTION_DDOT":0}]
